[{"OBJECT_NAME":"STARLINK-3312","OBJECT_ID":"2022-001AZ","EPOCH":"2026-03-09T11:22:03.363456","MEAN_MOTION":15.08837152,"ECCENTRICITY":0.00012848,"INCLINATION":53.2172,"RA_OF_ASC_NODE":140.0908,"ARG_OF_PERICENTER":96.2045,"MEAN_ANOMALY":263.9093,"EPHEMERIS_TYPE":0,"CLASSIFICATION_TYPE":"U","NORAD_CAT_ID":50850,"ELEMENT_SET_NO":999,"REV_AT_EPOCH":23133,"BSTAR":-2.9322036e-5,"MEAN_MOTION_DOT":-7.54e-6,"MEAN_MOTION_DDOT":0},{"OBJECT_NAME":"CZ-4B R\/B","OBJECT_ID":"2011-079B","EPOCH":"2026-03-09T23:23:58.850880","MEAN_MOTION":15.14795537,"ECCENTRICITY":0.01251775,"INCLINATION":98.4688,"RA_OF_ASC_NODE":256.8191,"ARG_OF_PERICENTER":336.5095,"MEAN_ANOMALY":23.0446,"EPHEMERIS_TYPE":0,"CLASSIFICATION_TYPE":"U","NORAD_CAT_ID":38039,"ELEMENT_SET_NO":999,"REV_AT_EPOCH":77480,"BSTAR":0.00026364037,"MEAN_MOTION_DOT":5.867e-5,"MEAN_MOTION_DDOT":0}]
